{"type": "FeatureCollection", "features": [ {"type": "Feature", "properties": {"norad_id": 33841, "name": "COSMOS 2251 DEB", "group": "cosmos-2251-debris", "lat": 71.22905508735596, "lon": -9.861665929841482, "alt_km": 752.3074619906729, "timestamp": "2025-12-04T17:48:40.557658+00:00", "meta": {"OBJECT_NAME": "COSMOS 2251 DEB", "OBJECT_ID": "1993-036CJ", "EPOCH": "2025-12-04T07:59:15.430272", "MEAN_MOTION": 14.37840708, "ECCENTRICITY": 0.00201463, "INCLINATION": 74.0373, "RA_OF_ASC_NODE": 293.5202, "ARG_OF_PERICENTER": 15.8554, "MEAN_ANOMALY": 106.0888, "EPHEMERIS_TYPE": 0, "CLASSIFICATION_TYPE": "U", "NORAD_CAT_ID": 33841, "ELEMENT_SET_NO": 999, "REV_AT_EPOCH": 87993, "BSTAR": 0.00048269294, "MEAN_MOTION_DOT": 1.433e-05, "MEAN_MOTION_DDOT": 0}, "tle": {"line1": "1 33841U 93036CJ  25338.33281748  .00001433  00000+0  48269-3 0  9999", "line2": "2 33841  74.0373 293.5202 0020146  15.8554 106.0888 14.37840708879938"}}, "geometry": {"type": "Point", "coordinates": [-9.861665929841482, 71.22905508735596]}}, {"type": "Feature", "properties": {"norad_id": 33842, "name": "COSMOS 2251 DEB", "group": "cosmos-2251-debris", "lat": -14.718912965800836, "lon": 58.80920935274847, "alt_km": 782.4420704544273, "timestamp": "2025-12-04T17:48:40.557669+00:00", "meta": {"OBJECT_NAME": "COSMOS 2251 DEB", "OBJECT_ID": "1993-036CK", "EPOCH": "2025-12-04T03:35:36.017952", "MEAN_MOTION": 14.4266899, "ECCENTRICITY": 0.00470098, "INCLINATION": 74.0333, "RA_OF_ASC_NODE": 235.595, "ARG_OF_PERICENTER": 344.6467, "MEAN_ANOMALY": 15.326, "EPHEMERIS_TYPE": 0, "CLASSIFICATION_TYPE": "U", "NORAD_CAT_ID": 33842, "ELEMENT_SET_NO": 999, "REV_AT_EPOCH": 88213, "BSTAR": 0.00060332294, "MEAN_MOTION_DOT": 2.007e-05, "MEAN_MOTION_DDOT": 0}, "tle": {"line1": "1 33842U 93036CK  25338.14972243  .00002007  00000+0  60332-3 0  9999", "line2": "2 33842  74.0333 235.5950 0047009 344.6467  15.3260 14.42668990882133"}}, "geometry": {"type": "Point", "coordinates": [58.80920935274847, -14.718912965800836]}}, {"type": "Feature", "properties": {"norad_id": 33844, "name": "COSMOS 2251 DEB", "group": "cosmos-2251-debris", "lat": 22.892705448098084, "lon": 74.30713530575868, "alt_km": 765.8348077617084, "timestamp": "2025-12-04T17:48:40.557679+00:00", "meta": {"OBJECT_NAME": "COSMOS 2251 DEB", "OBJECT_ID": "1993-036CM", "EPOCH": "2025-12-04T07:56:54.898080", "MEAN_MOTION": 14.33688701, "ECCENTRICITY": 0.00471522, "INCLINATION": 74.0671, "RA_OF_ASC_NODE": 68.1288, "ARG_OF_PERICENTER": 92.7433, "MEAN_ANOMALY": 331.5711, "EPHEMERIS_TYPE": 0, "CLASSIFICATION_TYPE": "U", "NORAD_CAT_ID": 33844, "ELEMENT_SET_NO": 999, "REV_AT_EPOCH": 87605, "BSTAR": 0.00079348958, "MEAN_MOTION_DOT": 2.204e-05, "MEAN_MOTION_DDOT": 0}, "tle": {"line1": "1 33844U 93036CM  25338.33119095  .00002204  00000+0  79349-3 0  9997", "line2": "2 33844  74.0671  68.1288 0047152  92.7433 331.5711 14.33688701876057"}}, "geometry": {"type": "Point", "coordinates": [74.30713530575868, 22.892705448098084]}}, {"type": "Feature", "properties": {"norad_id": 33848, "name": "COSMOS 2251 DEB", "group": "cosmos-2251-debris", "lat": -73.71058840712604, "lon": -89.00755484561947, "alt_km": 780.4061143243234, "timestamp": "2025-12-04T17:48:40.557689+00:00", "meta": {"OBJECT_NAME": "COSMOS 2251 DEB", "OBJECT_ID": "1993-036CR", "EPOCH": "2025-12-04T05:14:57.141888", "MEAN_MOTION": 14.43976485, "ECCENTRICITY": 0.00409273, "INCLINATION": 74.0323, "RA_OF_ASC_NODE": 13.4968, "ARG_OF_PERICENTER": 72.3191, "MEAN_ANOMALY": 354.7827, "EPHEMERIS_TYPE": 0, "CLASSIFICATION_TYPE": "U", "NORAD_CAT_ID": 33848, "ELEMENT_SET_NO": 999, "REV_AT_EPOCH": 87708, "BSTAR": 0.0021144365, "MEAN_MOTION_DOT": 7.279e-05, "MEAN_MOTION_DDOT": 0}, "tle": {"line1": "1 33848U 93036CR  25338.21871692  .00007279  00000+0  21144-2 0  9992", "line2": "2 33848  74.0323  13.4968 0040927  72.3191 354.7827 14.43976485877080"}}, "geometry": {"type": "Point", "coordinates": [-89.00755484561947, -73.71058840712604]}}, {"type": "Feature", "properties": {"norad_id": 33892, "name": "COSMOS 2251 DEB", "group": "cosmos-2251-debris", "lat": 60.68855466385662, "lon": 147.82803545384326, "alt_km": 798.6963067648721, "timestamp": "2025-12-04T17:48:40.557700+00:00", "meta": {"OBJECT_NAME": "COSMOS 2251 DEB", "OBJECT_ID": "1993-036CV", "EPOCH": "2025-12-03T09:35:52.194624", "MEAN_MOTION": 14.23270124, "ECCENTRICITY": 0.01135731, "INCLINATION": 73.802, "RA_OF_ASC_NODE": 119.0952, "ARG_OF_PERICENTER": 152.0607, "MEAN_ANOMALY": 239.9166, "EPHEMERIS_TYPE": 0, "CLASSIFICATION_TYPE": "U", "NORAD_CAT_ID": 33892, "ELEMENT_SET_NO": 999, "REV_AT_EPOCH": 86822, "BSTAR": 0.0014010506, "MEAN_MOTION_DOT": 3.365e-05, "MEAN_MOTION_DDOT": 0}, "tle": {"line1": "1 33892U 93036CV  25337.39990966  .00003365  00000+0  14011-2 0  9992", "line2": "2 33892  73.8020 119.0952 0113573 152.0607 239.9166 14.23270124868223"}}, "geometry": {"type": "Point", "coordinates": [147.82803545384326, 60.68855466385662]}}, {"type": "Feature", "properties": {"norad_id": 33894, "name": "COSMOS 2251 DEB", "group": "cosmos-2251-debris", "lat": 36.95319803297055, "lon": 14.117785471838083, "alt_km": 1354.6687514446267, "timestamp": "2025-12-04T17:48:40.557711+00:00", "meta": {"OBJECT_NAME": "COSMOS 2251 DEB", "OBJECT_ID": "1993-036CX", "EPOCH": "2025-12-03T01:38:16.679040", "MEAN_MOTION": 13.21251697, "ECCENTRICITY": 0.05793433, "INCLINATION": 73.7665, "RA_OF_ASC_NODE": 4.0465, "ARG_OF_PERICENTER": 284.7091, "MEAN_ANOMALY": 69.0497, "EPHEMERIS_TYPE": 0, "CLASSIFICATION_TYPE": "U", "NORAD_CAT_ID": 33894, "ELEMENT_SET_NO": 999, "REV_AT_EPOCH": 80580, "BSTAR": 0.0024833384, "MEAN_MOTION_DOT": 2.447e-05, "MEAN_MOTION_DDOT": 0}, "tle": {"line1": "1 33894U 93036CX  25337.06824860  .00002447  00000+0  24833-2 0  9990", "line2": "2 33894  73.7665   4.0465 0579343 284.7091  69.0497 13.21251697805807"}}, "geometry": {"type": "Point", "coordinates": [14.117785471838083, 36.95319803297055]}}, {"type": "Feature", "properties": {"norad_id": 33896, "name": "COSMOS 2251 DEB", "group": "cosmos-2251-debris", "lat": -69.67609917737207, "lon": 43.07356184434359, "alt_km": 835.4071143257652, "timestamp": "2025-12-04T17:48:40.557721+00:00", "meta": {"OBJECT_NAME": "COSMOS 2251 DEB", "OBJECT_ID": "1993-036CZ", "EPOCH": "2025-12-04T07:17:28.398624", "MEAN_MOTION": 14.19007738, "ECCENTRICITY": 0.01260489, "INCLINATION": 73.766, "RA_OF_ASC_NODE": 171.9975, "ARG_OF_PERICENTER": 349.0493, "MEAN_ANOMALY": 191.6486, "EPHEMERIS_TYPE": 0, "CLASSIFICATION_TYPE": "U", "NORAD_CAT_ID": 33896, "ELEMENT_SET_NO": 999, "REV_AT_EPOCH": 86620, "BSTAR": 0.0009149752, "MEAN_MOTION_DOT": 2.04e-05, "MEAN_MOTION_DDOT": 0}, "tle": {"line1": "1 33896U 93036CZ  25338.30380091  .00002040  00000+0  91498-3 0  9994", "line2": "2 33896  73.7660 171.9975 0126048 349.0493 191.6486 14.19007738866209"}}, "geometry": {"type": "Point", "coordinates": [43.07356184434359, -69.67609917737207]}}, {"type": "Feature", "properties": {"norad_id": 33899, "name": "COSMOS 2251 DEB", "group": "cosmos-2251-debris", "lat": 30.753827981073403, "lon": -88.79724333908531, "alt_km": 649.0136752859644, "timestamp": "2025-12-04T17:48:40.557732+00:00", "meta": {"OBJECT_NAME": "COSMOS 2251 DEB", "OBJECT_ID": "1993-036DC", "EPOCH": "2025-12-04T01:14:55.253760", "MEAN_MOTION": 14.61037562, "ECCENTRICITY": 0.0057677, "INCLINATION": 74.0533, "RA_OF_ASC_NODE": 102.3156, "ARG_OF_PERICENTER": 167.407, "MEAN_ANOMALY": 312.2659, "EPHEMERIS_TYPE": 0, "CLASSIFICATION_TYPE": "U", "NORAD_CAT_ID": 33899, "ELEMENT_SET_NO": 999, "REV_AT_EPOCH": 88712, "BSTAR": 0.002362534, "MEAN_MOTION_DOT": 0.00011865, "MEAN_MOTION_DDOT": 0}, "tle": {"line1": "1 33899U 93036DC  25338.05202840  .00011865  00000+0  23625-2 0  9995", "line2": "2 33899  74.0533 102.3156 0057677 167.4070 312.2659 14.61037562887120"}}, "geometry": {"type": "Point", "coordinates": [-88.79724333908531, 30.753827981073403]}}, {"type": "Feature", "properties": {"norad_id": 33900, "name": "COSMOS 2251 DEB", "group": "cosmos-2251-debris", "lat": -73.0895681907635, "lon": -94.41047562241741, "alt_km": 708.3679933723006, "timestamp": "2025-12-04T17:48:40.557742+00:00", "meta": {"OBJECT_NAME": "COSMOS 2251 DEB", "OBJECT_ID": "1993-036DD", "EPOCH": "2025-12-04T05:22:50.799648", "MEAN_MOTION": 14.58299624, "ECCENTRICITY": 0.00473346, "INCLINATION": 74.0197, "RA_OF_ASC_NODE": 16.0879, "ARG_OF_PERICENTER": 170.5329, "MEAN_ANOMALY": 255.3433, "EPHEMERIS_TYPE": 0, "CLASSIFICATION_TYPE": "U", "NORAD_CAT_ID": 33900, "ELEMENT_SET_NO": 999, "REV_AT_EPOCH": 88912, "BSTAR": 0.00088708596, "MEAN_MOTION_DOT": 4.138e-05, "MEAN_MOTION_DDOT": 0}, "tle": {"line1": "1 33900U 93036DD  25338.22419907  .00004138  00000+0  88709-3 0  9991", "line2": "2 33900  74.0197  16.0879 0047334 170.5329 255.3433 14.58299624889127"}}, "geometry": {"type": "Point", "coordinates": [-94.41047562241741, -73.0895681907635]}}, {"type": "Feature", "properties": {"norad_id": 33901, "name": "COSMOS 2251 DEB", "group": "cosmos-2251-debris", "lat": 44.74633354725506, "lon": 82.98512063927814, "alt_km": 539.220627347072, "timestamp": "2025-12-04T17:48:40.557752+00:00", "meta": {"OBJECT_NAME": "COSMOS 2251 DEB", "OBJECT_ID": "1993-036DE", "EPOCH": "2025-12-04T06:30:15.819552", "MEAN_MOTION": 15.14363797, "ECCENTRICITY": 0.00346728, "INCLINATION": 73.773, "RA_OF_ASC_NODE": 67.201, "ARG_OF_PERICENTER": 199.2443, "MEAN_ANOMALY": 160.7443, "EPHEMERIS_TYPE": 0, "CLASSIFICATION_TYPE": "U", "NORAD_CAT_ID": 33901, "ELEMENT_SET_NO": 999, "REV_AT_EPOCH": 89385, "BSTAR": 0.007757971, "MEAN_MOTION_DOT": 0.0014731, "MEAN_MOTION_DDOT": 0}, "tle": {"line1": "1 33901U 93036DE  25338.27101643  .00147310  00000+0  77580-2 0  9996", "line2": "2 33901  73.7730  67.2010 0034672 199.2443 160.7443 15.14363797893859"}}, "geometry": {"type": "Point", "coordinates": [82.98512063927814, 44.74633354725506]}}]}